0 SKYMED 4
1 37216U 10060A   13282.39247470 -.00001576  00000-0 -19155-3 0  2334
2 37216 097.8744 105.7849 0001255 078.0638 282.0704 14.82146724158241
0 SKYMED 4
1 37216U 10060A   13282.73002953 -.00001584  00000-0 -19253-3 0  2346
2 37216 097.8743 106.1171 0001250 080.5102 279.6285 14.82145826158295
0 SKYMED 4
1 37216U 10060A   13283.06758374 -.00001606  00000-0 -19529-3 0  2350
2 37216 097.8745 106.4494 0001274 084.8766 275.2602 14.82144699158345
0 SKYMED 4
1 37216U 10060A   13283.40513816 -.00001619  00000-0 -19690-3 0  2362
2 37216 097.8744 106.7818 0001313 084.8656 275.2716 14.82143792158393
0 SKYMED 4
1 37216U 10060A   13283.74269177 -.00001525  00000-0 -18509-3 0  2372
2 37216 097.8744 107.1137 0001207 089.2636 270.8776 14.82143997158441
0 SKYMED 4
1 37216U 10060A   13284.08024491 -.00001396  00000-0 -16887-3 0  2382
2 37216 097.8743 107.4458 0001177 083.1856 276.9574 14.82144561158498
0 SKYMED 4
1 37216U 10060A   13284.41779621 -.00001195  00000-0 -14366-3 0  2399
2 37216 097.8741 107.7775 0001185 081.8668 278.2765 14.82146019158549
0 SKYMED 4
1 37216U 10060A   13285.43045058 -.00000616  00000-0 -70818-4 0  2428
2 37216 097.8739 108.7737 0001121 090.6640 269.4775 14.82150100158698
0 SKYMED 4
1 37216U 10060A   13285.76800194 -.00000350  00000-0 -37484-4 0  2432
2 37216 097.8739 109.1061 0001118 080.7082 279.4315 14.82152005158742
0 SKYMED 4
1 37216U 10060A   13286.03804248 -.00000069  00000-0 -21632-5 0  2444
2 37216 097.8742 109.3722 0001310 084.0475 276.0963 14.82154311158787
0 SKYMED 4
1 37216U 10060A   13286.44310306  .00000214  00000-0  33471-4 0  2450
2 37216 097.8740 109.7710 0001287 079.5313 280.6092 14.82156688158849
0 SKYMED 4
1 37216U 10060A   13286.78065417  .00000295  00000-0  43627-4 0  2461
2 37216 097.8743 110.1036 0001311 078.3682 281.7700 14.82157572158899
0 SKYMED 4
1 37216U 10060A   13287.05069413  .00000430  00000-0  60575-4 0  2475
2 37216 097.8748 110.3695 0001296 083.5011 276.6366 14.82158972158934
0 SKYMED 4
1 37216U 10060A   13287.45575542  .00000499  00000-0  69166-4 0  2485
2 37216 097.8745 110.7679 0001242 081.3913 278.7471 14.82160080158994
0 SKYMED 4
1 37216U 10060A   13287.72579556  .00000544  00000-0  74894-4 0  2490
2 37216 097.8745 111.0336 0001217 080.6530 279.4838 14.82160885159031
0 SKYMED 4
1 37216U 10060A   13288.06334628  .00000595  00000-0  81219-4 0  2504
2 37216 097.8746 111.3660 0001276 080.1329 280.0041 14.82161773159087
0 SKYMED 4
1 37216U 10060A   13288.73844594  .00000729  00000-0  98130-4 0  2527
2 37216 097.8745 112.0305 0001253 083.7285 276.4091 14.82164150159182
0 SKYMED 4
1 37216U 10060A   13289.07599597  .00000783  00000-0  10484-3 0  2531
2 37216 097.8747 112.3629 0001291 082.5613 277.5769 14.82165188159232
0 SKYMED 4
1 37216U 10060A   13289.41354545  .00000840  00000-0  11198-3 0  2549
2 37216 097.8745 112.6947 0001286 082.6342 277.5041 14.82166348159287
0 SKYMED 4
1 37216U 10060A   13289.75109454  .00000886  00000-0  11779-3 0  2559
2 37216 097.8745 113.0270 0001263 085.9574 274.1806 14.82167465159338
0 SKYMED 4
1 37216U 10060A   13290.08864366  .00000934  00000-0  12376-3 0  2566
2 37216 097.8747 113.3594 0001294 084.7762 275.3612 14.82168545159385
0 SKYMED 4
1 37216U 10060A   13290.42619274  .00000972  00000-0  12854-3 0  2574
2 37216 097.8746 113.6914 0001282 086.5308 273.6065 14.82169562159435
0 SKYMED 4
1 37216U 10060A   13290.76374165  .00000984  00000-0  13010-3 0  2587
2 37216 097.8746 114.0236 0001270 086.7454 273.3908 14.82170380159486
0 SKYMED 4
1 37216U 10060A   13291.10129059  .00001020  00000-0  13458-3 0  2595
2 37216 097.8746 114.3559 0001297 086.2322 273.9048 14.82171390159534
0 SKYMED 4
1 37216U 10060A   13291.43883937  .00001025  00000-0  13520-3 0  2600
2 37216 097.8746 114.6880 0001277 086.8320 273.3041 14.82172114159583
0 SKYMED 4
1 37216U 10060A   13291.77638825  .00001014  00000-0  13388-3 0  2612
2 37216 097.8745 115.0201 0001287 086.8351 273.3003 14.82172686159637
0 SKYMED 4
1 37216U 10060A   13292.04642737  .00001027  00000-0  13550-3 0  2626
2 37216 097.8745 115.2859 0001265 083.4321 276.7034 14.82173317159671
0 SKYMED 4
1 37216U 10060A   13292.45148621  .00001000  00000-0  13211-3 0  2630
2 37216 097.8747 115.6847 0001284 082.6187 277.5155 14.82173755159732
0 SKYMED 4
1 37216U 10060A   13292.72152562  .00000982  00000-0  12977-3 0  2646
2 37216 097.8745 115.9503 0001274 084.0366 276.0991 14.82174078159771
0 SKYMED 4
1 37216U 10060A   13293.05907419  .00000969  00000-0  12815-3 0  2659
2 37216 097.8746 116.2827 0001281 082.2214 277.9135 14.82174578159826
0 SKYMED 4
1 37216U 10060A   13293.39662342  .00000916  00000-0  12152-3 0  2666
2 37216 097.8744 116.6148 0001284 082.6355 277.4998 14.82174666159872
0 SKYMED 4
1 37216U 10060A   13293.73417210  .00000877  00000-0  11664-3 0  2670
2 37216 097.8741 116.9466 0001289 082.4248 277.7094 14.82174881159924
0 SKYMED 4
1 37216U 10060A   13294.13923084  .00000399  00000-0  56701-4 0  2688
2 37216 097.8754 117.3462 0001722 081.4582 278.5954 14.82146363159985
0 SKYMED 4
1 37216U 10060A   13294.47678278  .00000263  00000-0  39547-4 0  2697
2 37216 097.8746 117.6780 0001548 089.7121 270.3795 14.82168811160031
0 SKYMED 4
1 37216U 10060A   13294.81434209  .00000154  00000-0  25853-4 0  2705
2 37216 097.8745 118.0099 0001604 092.2537 267.8826 14.82167909160089
0 SKYMED 4
1 37216U 10060A   13295.08438313  .00000042  00000-0  11774-4 0  2719
2 37216 097.8744 118.2754 0001535 092.4644 267.6706 14.82166937160122
0 SKYMED 4
1 37216U 10060A   13295.48944786 -.00000346  00000-0 -36968-4 0  2721
2 37216 097.8743 118.6748 0001527 086.3515 273.7739 14.82162831160187
0 SKYMED 4
1 37216U 10060A   13295.75949216 -.00000479  00000-0 -53665-4 0  2735
2 37216 097.8741 118.9406 0001513 086.4563 273.6780 14.82161313160222
0 SKYMED 4
1 37216U 10060A   13296.09704488 -.00000715  00000-0 -83290-4 0  2744
2 37216 097.8741 119.2729 0001213 083.7780 276.3472 14.82158696160275
